SL-16 R/B               
1 25400U 98043G   26038.49110753  .00000117  00000+0  67736-4 0  9995
2 25400  98.8206 351.6504 0010893 100.8784 259.3622 14.26042483434687
SL-16 R/B               
1 25407U 98045B   26038.62472752 -.00000076  00000+0 -14472-4 0  9994
2 25407  71.0083 244.7999 0005327  64.2763 295.8910 14.16185201422841
ISS (ZARYA)             
1 25544U 98067A   26038.50283897  .00012054  00000+0  23050-3 0  9995
2 25544  51.6315 221.5822 0011000  74.6214 285.5989 15.48462076551652
CZ-4B R/B               
1 25732U 99025C   26038.62251374  .00000067  00000+0  52921-4 0  9998
2 25732  98.6686  83.6080 0038128  72.0814  43.9414 14.18259290383902
OKEAN-O                 
1 25860U 99039A   26038.63999393  .00000974  00000+0  13469-3 0  9996
2 25860  97.9509  98.8269 0001880  87.6154 272.5274 14.80286045429947
SL-16 R/B               
1 25861U 99039B   26038.64826899  .00000772  00000+0  10478-3 0  9991
2 25861  98.0031  97.7794 0014722   0.4787 359.6437 14.81688772432413
DELTA 2 R/B             
1 25876U 99041E   26038.42524996  .00002603  00000+0  45605-3 0  9994
2 25876  51.7648  62.1362 0502324 259.0175  95.3879 14.11715206358753
HELIOS 1B               
1 25977U 99064A   26038.64780410  .00002413  00000+0  27215-3 0  9996
2 25977  98.1723 300.0045 0002020 117.3744 242.7677 14.87573022680799
TERRA                   
1 25994U 99068A   26038.65901347  .00000608  00000+0  13311-3 0  9990
2 25994  97.9658  93.2312 0000938 280.6563 191.4634 14.60981834390694
SL-16 R/B               
1 26070U 00006B   26038.63230745 -.00000041  00000+0  36253-5 0  9999
2 26070  71.0030 161.0358 0018420 232.5591 127.3857 14.15820768344303
TITAN 4B R/B            
1 26474U 00047B   26038.61263037  .00004543  00000+0  28797-3 0  9992
2 26474  67.9891 125.0700 0037026  72.3527 288.1660 15.09312515388376
ENVISAT                 
1 27386U 02009A   26038.51538943  .00000204  00000+0  79803-4 0  9990
2 27386  98.3678 352.8412 0001283  91.0506  24.4608 14.39025564254834
