CCSDS_OMM_VERS = 2.0
CREATION_DATE  = 
ORIGINATOR     = 

OBJECT_NAME    = SL-16 R/B
OBJECT_ID      = 1998-043G
CENTER_NAME    = EARTH
REF_FRAME      = TEME
TIME_SYSTEM    = UTC
MEAN_ELEMENT_THEORY = SGP/SGP4

EPOCH          = 2026-02-07T11:47:11.690592
MEAN_MOTION    = 14.26042483
ECCENTRICITY   = .00108937
INCLINATION    = 98.8206
RA_OF_ASC_NODE = 351.6504
ARG_OF_PERICENTER = 100.8784
MEAN_ANOMALY   = 259.3622

EPHEMERIS_TYPE = 0
CLASSIFICATION_TYPE = U
NORAD_CAT_ID   = 25400
ELEMENT_SET_NO = 999
REV_AT_EPOCH   = 43468
BSTAR          = .67736244E-4
MEAN_MOTION_DOT = .117E-5
MEAN_MOTION_DDOT = 0

CCSDS_OMM_VERS = 2.0
CREATION_DATE  = 
ORIGINATOR     = 

OBJECT_NAME    = SL-16 R/B
OBJECT_ID      = 1998-045B
CENTER_NAME    = EARTH
REF_FRAME      = TEME
TIME_SYSTEM    = UTC
MEAN_ELEMENT_THEORY = SGP/SGP4

EPOCH          = 2026-02-07T14:59:36.457728
MEAN_MOTION    = 14.16185201
ECCENTRICITY   = .00053275
INCLINATION    = 71.0083
RA_OF_ASC_NODE = 244.7999
ARG_OF_PERICENTER = 64.2763
MEAN_ANOMALY   = 295.8910

EPHEMERIS_TYPE = 0
CLASSIFICATION_TYPE = U
NORAD_CAT_ID   = 25407
ELEMENT_SET_NO = 999
REV_AT_EPOCH   = 42284
BSTAR          = -.14471828E-4
MEAN_MOTION_DOT = -.76E-6
MEAN_MOTION_DDOT = 0

CCSDS_OMM_VERS = 2.0
CREATION_DATE  = 
ORIGINATOR     = 

OBJECT_NAME    = ISS (ZARYA)
OBJECT_ID      = 1998-067A
CENTER_NAME    = EARTH
REF_FRAME      = TEME
TIME_SYSTEM    = UTC
MEAN_ELEMENT_THEORY = SGP/SGP4

EPOCH          = 2026-02-07T12:04:05.287008
MEAN_MOTION    = 15.48462076
ECCENTRICITY   = .00110001
INCLINATION    = 51.6315
RA_OF_ASC_NODE = 221.5822
ARG_OF_PERICENTER = 74.6214
MEAN_ANOMALY   = 285.5989

EPHEMERIS_TYPE = 0
CLASSIFICATION_TYPE = U
NORAD_CAT_ID   = 25544
ELEMENT_SET_NO = 999
REV_AT_EPOCH   = 55165
BSTAR          = .2304974E-3
MEAN_MOTION_DOT = .12054E-3
MEAN_MOTION_DDOT = 0

CCSDS_OMM_VERS = 2.0
CREATION_DATE  = 
ORIGINATOR     = 

OBJECT_NAME    = CZ-4B R/B
OBJECT_ID      = 1999-025C
CENTER_NAME    = EARTH
REF_FRAME      = TEME
TIME_SYSTEM    = UTC
MEAN_ELEMENT_THEORY = SGP/SGP4

EPOCH          = 2026-02-07T14:56:25.187136
MEAN_MOTION    = 14.18259290
ECCENTRICITY   = .00381287
INCLINATION    = 98.6686
RA_OF_ASC_NODE = 83.6080
ARG_OF_PERICENTER = 72.0814
MEAN_ANOMALY   = 43.9414

EPHEMERIS_TYPE = 0
CLASSIFICATION_TYPE = U
NORAD_CAT_ID   = 25732
ELEMENT_SET_NO = 999
REV_AT_EPOCH   = 38390
BSTAR          = .52920775E-4
MEAN_MOTION_DOT = .67E-6
MEAN_MOTION_DDOT = 0

CCSDS_OMM_VERS = 2.0
CREATION_DATE  = 
ORIGINATOR     = 

OBJECT_NAME    = OKEAN-O
OBJECT_ID      = 1999-039A
CENTER_NAME    = EARTH
REF_FRAME      = TEME
TIME_SYSTEM    = UTC
MEAN_ELEMENT_THEORY = SGP/SGP4

EPOCH          = 2026-02-07T15:21:35.475552
MEAN_MOTION    = 14.80286045
ECCENTRICITY   = .000188
INCLINATION    = 97.9509
RA_OF_ASC_NODE = 98.8269
ARG_OF_PERICENTER = 87.6154
MEAN_ANOMALY   = 272.5274

EPHEMERIS_TYPE = 0
CLASSIFICATION_TYPE = U
NORAD_CAT_ID   = 25860
ELEMENT_SET_NO = 999
REV_AT_EPOCH   = 42994
BSTAR          = .13469383E-3
MEAN_MOTION_DOT = .974E-5
MEAN_MOTION_DDOT = 0

CCSDS_OMM_VERS = 2.0
CREATION_DATE  = 
ORIGINATOR     = 

OBJECT_NAME    = SL-16 R/B
OBJECT_ID      = 1999-039B
CENTER_NAME    = EARTH
REF_FRAME      = TEME
TIME_SYSTEM    = UTC
MEAN_ELEMENT_THEORY = SGP/SGP4

EPOCH          = 2026-02-07T15:33:30.440736
MEAN_MOTION    = 14.81688772
ECCENTRICITY   = .0014722
INCLINATION    = 98.0031
RA_OF_ASC_NODE = 97.7794
ARG_OF_PERICENTER = 0.4787
MEAN_ANOMALY   = 359.6437

EPHEMERIS_TYPE = 0
CLASSIFICATION_TYPE = U
NORAD_CAT_ID   = 25861
ELEMENT_SET_NO = 999
REV_AT_EPOCH   = 43241
BSTAR          = .10478148E-3
MEAN_MOTION_DOT = .772E-5
MEAN_MOTION_DDOT = 0

CCSDS_OMM_VERS = 2.0
CREATION_DATE  = 
ORIGINATOR     = 

OBJECT_NAME    = DELTA 2 R/B
OBJECT_ID      = 1999-041E
CENTER_NAME    = EARTH
REF_FRAME      = TEME
TIME_SYSTEM    = UTC
MEAN_ELEMENT_THEORY = SGP/SGP4

EPOCH          = 2026-02-07T10:12:21.596544
MEAN_MOTION    = 14.11715206
ECCENTRICITY   = .05023244
INCLINATION    = 51.7648
RA_OF_ASC_NODE = 62.1362
ARG_OF_PERICENTER = 259.0175
MEAN_ANOMALY   = 95.3879

EPHEMERIS_TYPE = 0
CLASSIFICATION_TYPE = U
NORAD_CAT_ID   = 25876
ELEMENT_SET_NO = 999
REV_AT_EPOCH   = 35875
BSTAR          = .45604637E-3
MEAN_MOTION_DOT = .2603E-4
MEAN_MOTION_DDOT = 0

CCSDS_OMM_VERS = 2.0
CREATION_DATE  = 
ORIGINATOR     = 

OBJECT_NAME    = HELIOS 1B
OBJECT_ID      = 1999-064A
CENTER_NAME    = EARTH
REF_FRAME      = TEME
TIME_SYSTEM    = UTC
MEAN_ELEMENT_THEORY = SGP/SGP4

EPOCH          = 2026-02-07T15:32:50.274240
MEAN_MOTION    = 14.87573022
ECCENTRICITY   = .00020206
INCLINATION    = 98.1723
RA_OF_ASC_NODE = 300.0045
ARG_OF_PERICENTER = 117.3744
MEAN_ANOMALY   = 242.7677

EPHEMERIS_TYPE = 0
CLASSIFICATION_TYPE = U
NORAD_CAT_ID   = 25977
ELEMENT_SET_NO = 999
REV_AT_EPOCH   = 68079
BSTAR          = .27214801E-3
MEAN_MOTION_DOT = .2413E-4
MEAN_MOTION_DDOT = 0

CCSDS_OMM_VERS = 2.0
CREATION_DATE  = 
ORIGINATOR     = 

OBJECT_NAME    = TERRA
OBJECT_ID      = 1999-068A
CENTER_NAME    = EARTH
REF_FRAME      = TEME
TIME_SYSTEM    = UTC
MEAN_ELEMENT_THEORY = SGP/SGP4

EPOCH          = 2026-02-07T15:48:58.763808
MEAN_MOTION    = 14.60981834
ECCENTRICITY   = .00009383
INCLINATION    = 97.9658
RA_OF_ASC_NODE = 93.2312
ARG_OF_PERICENTER = 280.6563
MEAN_ANOMALY   = 191.4634

EPHEMERIS_TYPE = 0
CLASSIFICATION_TYPE = U
NORAD_CAT_ID   = 25994
ELEMENT_SET_NO = 999
REV_AT_EPOCH   = 39069
BSTAR          = .13310955E-3
MEAN_MOTION_DOT = .608E-5
MEAN_MOTION_DDOT = 0

CCSDS_OMM_VERS = 2.0
CREATION_DATE  = 
ORIGINATOR     = 

OBJECT_NAME    = SL-16 R/B
OBJECT_ID      = 2000-006B
CENTER_NAME    = EARTH
REF_FRAME      = TEME
TIME_SYSTEM    = UTC
MEAN_ELEMENT_THEORY = SGP/SGP4

EPOCH          = 2026-02-07T15:10:31.363680
MEAN_MOTION    = 14.15820768
ECCENTRICITY   = .00184201
INCLINATION    = 71.0030
RA_OF_ASC_NODE = 161.0358
ARG_OF_PERICENTER = 232.5591
MEAN_ANOMALY   = 127.3857

EPHEMERIS_TYPE = 0
CLASSIFICATION_TYPE = U
NORAD_CAT_ID   = 26070
ELEMENT_SET_NO = 999
REV_AT_EPOCH   = 34430
BSTAR          = .3625298E-5
MEAN_MOTION_DOT = -.41E-6
MEAN_MOTION_DDOT = 0

CCSDS_OMM_VERS = 2.0
CREATION_DATE  = 
ORIGINATOR     = 

OBJECT_NAME    = TITAN 4B R/B
OBJECT_ID      = 2000-047B
CENTER_NAME    = EARTH
REF_FRAME      = TEME
TIME_SYSTEM    = UTC
MEAN_ELEMENT_THEORY = SGP/SGP4

EPOCH          = 2026-02-07T14:42:11.263968
MEAN_MOTION    = 15.09312515
ECCENTRICITY   = .00370267
INCLINATION    = 67.9891
RA_OF_ASC_NODE = 125.0700
ARG_OF_PERICENTER = 72.3527
MEAN_ANOMALY   = 288.1660

EPHEMERIS_TYPE = 0
CLASSIFICATION_TYPE = U
NORAD_CAT_ID   = 26474
ELEMENT_SET_NO = 999
REV_AT_EPOCH   = 38837
BSTAR          = .28797206E-3
MEAN_MOTION_DOT = .4543E-4
MEAN_MOTION_DDOT = 0

CCSDS_OMM_VERS = 2.0
CREATION_DATE  = 
ORIGINATOR     = 

OBJECT_NAME    = ENVISAT
OBJECT_ID      = 2002-009A
CENTER_NAME    = EARTH
REF_FRAME      = TEME
TIME_SYSTEM    = UTC
MEAN_ELEMENT_THEORY = SGP/SGP4

EPOCH          = 2026-02-07T12:22:09.646752
MEAN_MOTION    = 14.39025564
ECCENTRICITY   = .00012836
INCLINATION    = 98.3678
RA_OF_ASC_NODE = 352.8412
ARG_OF_PERICENTER = 91.0506
MEAN_ANOMALY   = 24.4608

EPHEMERIS_TYPE = 0
CLASSIFICATION_TYPE = U
NORAD_CAT_ID   = 27386
ELEMENT_SET_NO = 999
REV_AT_EPOCH   = 25483
BSTAR          = .79803084E-4
MEAN_MOTION_DOT = .204E-5
MEAN_MOTION_DDOT = 0

